CCSDS_OMM_VERS = 2.0
CREATION_DATE  = 
ORIGINATOR     = 

OBJECT_NAME    = ISS (ZARYA)
OBJECT_ID      = 1998-067A
CENTER_NAME    = EARTH
REF_FRAME      = TEME
TIME_SYSTEM    = UTC
MEAN_ELEMENT_THEORY = SGP/SGP4

EPOCH          = 2026-01-18T11:57:19.301184
MEAN_MOTION    = 15.49379123
ECCENTRICITY   = .00077964
INCLINATION    = 51.6336
RA_OF_ASC_NODE = 320.4997
ARG_OF_PERICENTER = 32.1936
MEAN_ANOMALY   = 327.9527

EPHEMERIS_TYPE = 0
CLASSIFICATION_TYPE = U
NORAD_CAT_ID   = 25544
ELEMENT_SET_NO = 999
REV_AT_EPOCH   = 54855
BSTAR          = .22598325E-3
MEAN_MOTION_DOT = .12194E-3
MEAN_MOTION_DDOT = 0

CCSDS_OMM_VERS = 2.0
CREATION_DATE  = 
ORIGINATOR     = 

OBJECT_NAME    = CSS (TIANHE)
OBJECT_ID      = 2021-035A
CENTER_NAME    = EARTH
REF_FRAME      = TEME
TIME_SYSTEM    = UTC
MEAN_ELEMENT_THEORY = SGP/SGP4

EPOCH          = 2026-01-18T14:11:10.059360
MEAN_MOTION    = 15.60649246
ECCENTRICITY   = .00110458
INCLINATION    = 41.4661
RA_OF_ASC_NODE = 152.7241
ARG_OF_PERICENTER = 310.5439
MEAN_ANOMALY   = 49.4438

EPHEMERIS_TYPE = 0
CLASSIFICATION_TYPE = U
NORAD_CAT_ID   = 48274
ELEMENT_SET_NO = 999
REV_AT_EPOCH   = 26978
BSTAR          = .23315616E-3
MEAN_MOTION_DOT = .19643E-3
MEAN_MOTION_DDOT = 0

CCSDS_OMM_VERS = 2.0
CREATION_DATE  = 
ORIGINATOR     = 

OBJECT_NAME    = ISS (NAUKA)
OBJECT_ID      = 2021-066A
CENTER_NAME    = EARTH
REF_FRAME      = TEME
TIME_SYSTEM    = UTC
MEAN_ELEMENT_THEORY = SGP/SGP4

EPOCH          = 2026-01-18T11:57:19.301184
MEAN_MOTION    = 15.49379123
ECCENTRICITY   = .00077964
INCLINATION    = 51.6336
RA_OF_ASC_NODE = 320.4997
ARG_OF_PERICENTER = 32.1936
MEAN_ANOMALY   = 327.9527

EPHEMERIS_TYPE = 0
CLASSIFICATION_TYPE = U
NORAD_CAT_ID   = 49044
ELEMENT_SET_NO = 999
REV_AT_EPOCH   = 23044
BSTAR          = .22598325E-3
MEAN_MOTION_DOT = .12194E-3
MEAN_MOTION_DDOT = 0

CCSDS_OMM_VERS = 2.0
CREATION_DATE  = 
ORIGINATOR     = 

OBJECT_NAME    = FREGAT DEB
OBJECT_ID      = 2011-037PF
CENTER_NAME    = EARTH
REF_FRAME      = TEME
TIME_SYSTEM    = UTC
MEAN_ELEMENT_THEORY = SGP/SGP4

EPOCH          = 2026-01-18T11:26:35.356704
MEAN_MOTION    = 12.36072932
ECCENTRICITY   = .08999662
INCLINATION    = 51.6289
RA_OF_ASC_NODE = 90.6873
ARG_OF_PERICENTER = 304.9687
MEAN_ANOMALY   = 46.9818

EPHEMERIS_TYPE = 0
CLASSIFICATION_TYPE = U
NORAD_CAT_ID   = 49271
ELEMENT_SET_NO = 999
REV_AT_EPOCH   = 20647
BSTAR          = .85855567E-1
MEAN_MOTION_DOT = .44747E-3
MEAN_MOTION_DDOT = 0

CCSDS_OMM_VERS = 2.0
CREATION_DATE  = 
ORIGINATOR     = 

OBJECT_NAME    = CSS (WENTIAN)
OBJECT_ID      = 2022-085A
CENTER_NAME    = EARTH
REF_FRAME      = TEME
TIME_SYSTEM    = UTC
MEAN_ELEMENT_THEORY = SGP/SGP4

EPOCH          = 2026-01-18T14:11:10.059360
MEAN_MOTION    = 15.60649246
ECCENTRICITY   = .00110458
INCLINATION    = 41.4661
RA_OF_ASC_NODE = 152.7241
ARG_OF_PERICENTER = 310.5439
MEAN_ANOMALY   = 49.4438

EPHEMERIS_TYPE = 0
CLASSIFICATION_TYPE = U
NORAD_CAT_ID   = 53239
ELEMENT_SET_NO = 999
REV_AT_EPOCH   = 17384
BSTAR          = .23315616E-3
MEAN_MOTION_DOT = .19643E-3
MEAN_MOTION_DDOT = 0

CCSDS_OMM_VERS = 2.0
CREATION_DATE  = 
ORIGINATOR     = 

OBJECT_NAME    = CSS (MENGTIAN)
OBJECT_ID      = 2022-143A
CENTER_NAME    = EARTH
REF_FRAME      = TEME
TIME_SYSTEM    = UTC
MEAN_ELEMENT_THEORY = SGP/SGP4

EPOCH          = 2026-01-18T14:11:10.059360
MEAN_MOTION    = 15.60649246
ECCENTRICITY   = .00110458
INCLINATION    = 41.4661
RA_OF_ASC_NODE = 152.7241
ARG_OF_PERICENTER = 310.5439
MEAN_ANOMALY   = 49.4438

EPHEMERIS_TYPE = 0
CLASSIFICATION_TYPE = U
NORAD_CAT_ID   = 54216
ELEMENT_SET_NO = 999
REV_AT_EPOCH   = 15864
BSTAR          = .23315616E-3
MEAN_MOTION_DOT = .19643E-3
MEAN_MOTION_DDOT = 0

CCSDS_OMM_VERS = 2.0
CREATION_DATE  = 
ORIGINATOR     = 

OBJECT_NAME    = SHENZHOU-20 (SZ-20)
OBJECT_ID      = 2025-082A
CENTER_NAME    = EARTH
REF_FRAME      = TEME
TIME_SYSTEM    = UTC
MEAN_ELEMENT_THEORY = SGP/SGP4

EPOCH          = 2026-01-18T14:11:10.059360
MEAN_MOTION    = 15.60649246
ECCENTRICITY   = .00110458
INCLINATION    = 41.4661
RA_OF_ASC_NODE = 152.7241
ARG_OF_PERICENTER = 310.5439
MEAN_ANOMALY   = 49.4438

EPHEMERIS_TYPE = 0
CLASSIFICATION_TYPE = U
NORAD_CAT_ID   = 63632
ELEMENT_SET_NO = 999
REV_AT_EPOCH   = 25530
BSTAR          = .23315616E-3
MEAN_MOTION_DOT = .19643E-3
MEAN_MOTION_DDOT = 0

CCSDS_OMM_VERS = 2.0
CREATION_DATE  = 
ORIGINATOR     = 

OBJECT_NAME    = PROGRESS-MS 31
OBJECT_ID      = 2025-146A
CENTER_NAME    = EARTH
REF_FRAME      = TEME
TIME_SYSTEM    = UTC
MEAN_ELEMENT_THEORY = SGP/SGP4

EPOCH          = 2026-01-18T11:57:19.301184
MEAN_MOTION    = 15.49379123
ECCENTRICITY   = .00077964
INCLINATION    = 51.6336
RA_OF_ASC_NODE = 320.4997
ARG_OF_PERICENTER = 32.1936
MEAN_ANOMALY   = 327.9527

EPHEMERIS_TYPE = 0
CLASSIFICATION_TYPE = U
NORAD_CAT_ID   = 64751
ELEMENT_SET_NO = 999
REV_AT_EPOCH   = 675
BSTAR          = .22598325E-3
MEAN_MOTION_DOT = .12194E-3
MEAN_MOTION_DDOT = 0

CCSDS_OMM_VERS = 2.0
CREATION_DATE  = 
ORIGINATOR     = 

OBJECT_NAME    = TIANZHOU-9
OBJECT_ID      = 2025-149A
CENTER_NAME    = EARTH
REF_FRAME      = TEME
TIME_SYSTEM    = UTC
MEAN_ELEMENT_THEORY = SGP/SGP4

EPOCH          = 2026-01-18T14:11:10.059360
MEAN_MOTION    = 15.60649246
ECCENTRICITY   = .00110458
INCLINATION    = 41.4661
RA_OF_ASC_NODE = 152.7241
ARG_OF_PERICENTER = 310.5439
MEAN_ANOMALY   = 49.4438

EPHEMERIS_TYPE = 0
CLASSIFICATION_TYPE = U
NORAD_CAT_ID   = 64786
ELEMENT_SET_NO = 999
REV_AT_EPOCH   = 25530
BSTAR          = .23315616E-3
MEAN_MOTION_DOT = .19643E-3
MEAN_MOTION_DDOT = 0

CCSDS_OMM_VERS = 2.0
CREATION_DATE  = 
ORIGINATOR     = 

OBJECT_NAME    = DRAGON CRS-33
OBJECT_ID      = 2025-186A
CENTER_NAME    = EARTH
REF_FRAME      = TEME
TIME_SYSTEM    = UTC
MEAN_ELEMENT_THEORY = SGP/SGP4

EPOCH          = 2026-01-18T11:57:19.301184
MEAN_MOTION    = 15.49379123
ECCENTRICITY   = .00077964
INCLINATION    = 51.6336
RA_OF_ASC_NODE = 320.4997
ARG_OF_PERICENTER = 32.1936
MEAN_ANOMALY   = 327.9527

EPHEMERIS_TYPE = 0
CLASSIFICATION_TYPE = U
NORAD_CAT_ID   = 65304
ELEMENT_SET_NO = 999
REV_AT_EPOCH   = 11
BSTAR          = .22598325E-3
MEAN_MOTION_DOT = .12194E-3
MEAN_MOTION_DDOT = 0

CCSDS_OMM_VERS = 2.0
CREATION_DATE  = 
ORIGINATOR     = 

OBJECT_NAME    = PROGRESS-MS 32
OBJECT_ID      = 2025-204A
CENTER_NAME    = EARTH
REF_FRAME      = TEME
TIME_SYSTEM    = UTC
MEAN_ELEMENT_THEORY = SGP/SGP4

EPOCH          = 2026-01-18T11:57:19.301184
MEAN_MOTION    = 15.49379123
ECCENTRICITY   = .00077964
INCLINATION    = 51.6336
RA_OF_ASC_NODE = 320.4997
ARG_OF_PERICENTER = 32.1936
MEAN_ANOMALY   = 327.9527

EPHEMERIS_TYPE = 0
CLASSIFICATION_TYPE = U
NORAD_CAT_ID   = 65586
ELEMENT_SET_NO = 999
REV_AT_EPOCH   = 27
BSTAR          = .22598325E-3
MEAN_MOTION_DOT = .12194E-3
MEAN_MOTION_DDOT = 0

CCSDS_OMM_VERS = 2.0
CREATION_DATE  = 
ORIGINATOR     = 

OBJECT_NAME    = CYGNUS NG-23
OBJECT_ID      = 2025-208A
CENTER_NAME    = EARTH
REF_FRAME      = TEME
TIME_SYSTEM    = UTC
MEAN_ELEMENT_THEORY = SGP/SGP4

EPOCH          = 2026-01-18T11:57:19.301184
MEAN_MOTION    = 15.49379123
ECCENTRICITY   = .00077964
INCLINATION    = 51.6336
RA_OF_ASC_NODE = 320.4997
ARG_OF_PERICENTER = 32.1936
MEAN_ANOMALY   = 327.9527

EPHEMERIS_TYPE = 0
CLASSIFICATION_TYPE = U
NORAD_CAT_ID   = 65616
ELEMENT_SET_NO = 999
REV_AT_EPOCH   = 22
BSTAR          = .22598325E-3
MEAN_MOTION_DOT = .12194E-3
MEAN_MOTION_DDOT = 0

