ISS (ZARYA)             
1 25544U 98067A   26018.49814006  .00012194  00000+0  22598-3 0  9994
2 25544  51.6336 320.4997 0007796  32.1936 327.9527 15.49379123548559
CSS (TIANHE)            
1 48274U 21035A   26018.59108865  .00019643  00000+0  23316-3 0  9995
2 48274  41.4661 152.7241 0011045 310.5439  49.4438 15.60649246269784
ISS (NAUKA)             
1 49044U 21066A   26018.49814006  .00012194  00000+0  22598-3 0  9990
2 49044  51.6336 320.4997 0007796  32.1936 327.9527 15.49379123230446
FREGAT DEB              
1 49271U 11037PF  26018.47679811  .00044747  00000+0  85856-1 0  9993
2 49271  51.6289  90.6873 0899966 304.9687  46.9818 12.36072932206473
CSS (WENTIAN)           
1 53239U 22085A   26018.59108865  .00019643  00000+0  23316-3 0  9998
2 53239  41.4661 152.7241 0011045 310.5439  49.4438 15.60649246173842
CSS (MENGTIAN)          
1 54216U 22143A   26018.59108865  .00019643  00000+0  23316-3 0  9999
2 54216  41.4661 152.7241 0011045 310.5439  49.4438 15.60649246158649
SHENZHOU-20 (SZ-20)     
1 63632U 25082A   26018.59108865  .00019643  00000+0  23316-3 0  9996
2 63632  41.4661 152.7241 0011045 310.5439  49.4438 15.60649246255302
PROGRESS-MS 31          
1 64751U 25146A   26018.49814006  .00012194  00000+0  22598-3 0  9995
2 64751  51.6336 320.4997 0007796  32.1936 327.9527 15.49379123  6753
TIANZHOU-9              
1 64786U 25149A   26018.59108865  .00019643  00000+0  23316-3 0  9991
2 64786  41.4661 152.7241 0011045 310.5439  49.4438 15.60649246255303
DRAGON CRS-33           
1 65304U 25186A   26018.49814006  .00012194  00000+0  22598-3 0  9994
2 65304  51.6336 320.4997 0007796  32.1936 327.9527 15.49379123   112
PROGRESS-MS 32          
1 65586U 25204A   26018.49814006  .00012194  00000+0  22598-3 0  9997
2 65586  51.6336 320.4997 0007796  32.1936 327.9527 15.49379123   271
CYGNUS NG-23            
1 65616U 25208A   26018.49814006  .00012194  00000+0  22598-3 0  9995
2 65616  51.6336 320.4997 0007796  32.1936 327.9527 15.49379123   220
